{
    "links": {
        "self": "http://www.neowsapp.com/rest/v1/neo/3840712?api_key=iIulBulltgU6a56xZRHN4H3l9WmuAYTsLGpBGhQ2"
    },
    "id": "3840712",
    "neo_reference_id": "3840712",
    "name": "(2019 FM1)",
    "designation": "2019 FM1",
    "nasa_jpl_url": "http://ssd.jpl.nasa.gov/sbdb.cgi?sstr=3840712",
    "absolute_magnitude_h": 23.5,
    "estimated_diameter": {
        "kilometers": {
            "estimated_diameter_min": 0.0530340723,
            "estimated_diameter_max": 0.1185877909
        },
        "meters": {
            "estimated_diameter_min": 53.0340723319,
            "estimated_diameter_max": 118.5877908577
        },
        "miles": {
            "estimated_diameter_min": 0.0329538346,
            "estimated_diameter_max": 0.0736870142
        },
        "feet": {
            "estimated_diameter_min": 173.9963058693,
            "estimated_diameter_max": 389.0675677576
        }
    },
    "is_potentially_hazardous_asteroid": false,
    "close_approach_data": [
        {
            "close_approach_date": "2019-02-24",
            "close_approach_date_full": "2019-Feb-24 12:57",
            "epoch_date_close_approach": 1551013020000,
            "relative_velocity": {
                "kilometers_per_second": "7.2755927922",
                "kilometers_per_hour": "26192.1340519681",
                "miles_per_hour": "16274.7735169021"
            },
            "miss_distance": {
                "astronomical": "0.1283713162",
                "lunar": "49.9364420018",
                "kilometers": "19204075.472616494",
                "miles": "11932859.1646518572"
            },
            "orbiting_body": "Earth"
        }
    ],
    "orbital_data": {
        "orbit_id": "3",
        "orbit_determination_date": "2019-04-14 10:56:00",
        "first_observation_date": "2019-03-29",
        "last_observation_date": "2019-04-13",
        "data_arc_in_days": 15,
        "observations_used": 31,
        "orbit_uncertainty": "7",
        "minimum_orbit_intersection": ".126806",
        "jupiter_tisserand_invariant": "3.793",
        "epoch_osculation": "2459000.5",
        "eccentricity": ".4506929680430081",
        "semi_major_axis": "1.909647769669453",
        "inclination": "8.980754728373865",
        "ascending_node_longitude": "188.0801187043671",
        "orbital_period": "963.8919024552789",
        "perihelion_distance": "1.048982948440417",
        "perihelion_argument": "301.710698329265",
        "aphelion_distance": "2.770312590898489",
        "perihelion_time": "2459480.573437362451",
        "mean_anomaly": "180.6993574588091",
        "mean_motion": ".3734858640092193",
        "equinox": "J2000",
        "orbit_class": {
            "orbit_class_type": "AMO",
            "orbit_class_description": "Near-Earth asteroid orbits similar to that of 1221 Amor",
            "orbit_class_range": "1.017 AU < q (perihelion) < 1.3 AU"
        }
    },
    "is_sentry_object": false
}